      2.10          N: GNSS NAV DATA                        RINEX VERSION / TYPE
fic2rin                                 09/30/2018 00:22:18 PGM / RUN BY / DATE
                                                            END OF HEADER
17 18  9 29 10  0  0.0-5.020154640079e-05 4.433786671143e-12 0.000000000000e+00
    8.000000000000e+01-9.462500000000e+01 3.864446684002e-09 2.102989265784e+00
   -5.010515451431e-06 1.262782432605e-02 1.025013625622e-05 5.153625547409e+03
    5.544000000000e+05 1.266598701477e-07 4.013038078458e-01-2.365559339523e-07
    9.835825604702e-01 1.911562500000e+02-1.773364534905e+00-7.610674157984e-09
   -1.639353999960e-10 1.000000000000e+00 2.020000000000e+03 0.000000000000e+00
    2.400000000000e+00 0.000000000000e+00-1.117587089539e-08 8.000000000000e+01
    5.472060000000e+05 4.000000000000e+00
19 18  9 29 10  0  0.0-3.982749767601e-04 3.524291969370e-12 0.000000000000e+00
    4.700000000000e+01-7.734375000000e+01 3.958022010361e-09-1.423480631282e+00
   -3.781169652939e-06 9.614755283110e-03 1.014024019241e-05 5.153608980179e+03
    5.544000000000e+05 1.192092895508e-07 4.480102251270e-01 2.048909664154e-07
    9.811857403588e-01 1.939062500000e+02 1.291651083732e+00-7.774252400246e-09
   -9.036090675161e-11 1.000000000000e+00 2.020000000000e+03 0.000000000000e+00
    2.400000000000e+00 0.000000000000e+00-1.536682248116e-08 4.700000000000e+01
    5.472060000000e+05 4.000000000000e+00
32 18  9 29 10  0  0.0-4.091658629477e-04 1.182343112305e-11 0.000000000000e+00
    5.000000000000e+01 2.031250000000e+00 4.306607958936e-09 2.853590208126e+00
    1.899898052216e-07 2.307243994437e-03 1.070648431778e-05 5.153713705063e+03
    5.544000000000e+05-3.539025783539e-08-2.799188369226e+00-1.490116119385e-08
    9.574004815387e-01 1.698125000000e+02-2.561041917356e+00-7.889257190657e-09
   -2.603679882289e-10 1.000000000000e+00 2.020000000000e+03 0.000000000000e+00
    2.400000000000e+00 0.000000000000e+00 4.656612873077e-10 5.000000000000e+01
    5.472060000000e+05 4.000000000000e+00
30 18  9 29 10  0  0.0 1.738965511322e-05-5.343281372916e-12 0.000000000000e+00
    1.010000000000e+02 1.136250000000e+02 4.910561687462e-09-7.514407597239e-01
    5.852431058884e-06 3.626844729297e-03 7.238239049911e-06 5.153686668396e+03
    5.544000000000e+05 9.499490261078e-08-1.695801308840e+00-2.607703208923e-08
    9.427899997649e-01 2.264375000000e+02-2.973644764629e+00-8.419279268204e-09
    3.493002640438e-10 1.000000000000e+00 2.020000000000e+03 0.000000000000e+00
    3.400000000000e+00 0.000000000000e+00 3.725290298462e-09 1.010000000000e+02
    5.472060000000e+05 4.000000000000e+00
27 18  9 29 10  0  0.0 3.400305286050e-04-4.092726157978e-12 0.000000000000e+00
    7.500000000000e+01-7.275000000000e+01 4.126243303167e-09 2.111264431598e+00
   -3.751367330551e-06 6.052096723579e-03 9.886920452118e-06 5.153697544098e+03
    5.544000000000e+05-1.974403858185e-07 3.465680827632e-01 5.029141902924e-08
    9.782384080820e-01 1.979375000000e+02 4.486651545332e-01-7.819968590223e-09
   -9.928985010651e-11 1.000000000000e+00 2.020000000000e+03 0.000000000000e+00
    2.400000000000e+00 0.000000000000e+00 1.862645149231e-09 7.500000000000e+01
    5.472060000000e+05 4.000000000000e+00
28 18  9 29 10  0  0.0 7.470878772438e-04 2.160049916711e-12 0.000000000000e+00
    7.400000000000e+01-3.331250000000e+01 4.325537318849e-09 3.011929959818e+00
   -1.786276698112e-06 1.958885265049e-02 2.712011337280e-06 5.153688055038e+03
    5.544000000000e+05 3.222376108170e-07-6.088580255178e-01-1.676380634308e-08
    9.846896763918e-01 3.377187500000e+02-1.512594527462e+00-7.960688737497e-09
   -1.300054152474e-10 1.000000000000e+00 2.020000000000e+03 0.000000000000e+00
    3.400000000000e+00 0.000000000000e+00-1.117587089539e-08 7.400000000000e+01
    5.472060000000e+05 4.000000000000e+00
30 18  9 29  9 59 44.0 1.738918945193e-05-5.343281372916e-12 0.000000000000e+00
    0.000000000000e+00 1.136250000000e+02 4.910204529728e-09-7.537740072673e-01
    5.852431058884e-06 3.626845660619e-03 7.238239049911e-06 5.153686668396e+03
    5.543840000000e+05 9.499490261078e-08-1.695801161085e+00-2.607703208923e-08
    9.427900070795e-01 2.264375000000e+02-2.973645231300e+00-8.419279268204e-09
    3.493002640438e-10 1.000000000000e+00 2.020000000000e+03 0.000000000000e+00
    2.400000000000e+00 0.000000000000e+00 3.725290298462e-09 0.000000000000e+00
    5.498160000000e+05 4.000000000000e+00
 8 18  9 29  9 59 44.0-1.167943701148e-04-1.364242052659e-12 0.000000000000e+00
    0.000000000000e+00-8.306250000000e+01 4.326608792051e-09 2.485071032269e+00
   -4.159286618233e-06 3.579709678888e-03 9.657815098763e-06 5.153635789871e+03
    5.543840000000e+05 3.539025783539e-08 3.371206894699e-01 1.806765794754e-07
    9.700136617397e-01 1.967500000000e+02-4.116721314767e-01-7.966046103509e-09
   -1.439345668810e-10 1.000000000000e+00 2.020000000000e+03 0.000000000000e+00
    2.400000000000e+00 0.000000000000e+00 5.122274160385e-09 0.000000000000e+00
    5.500860000000e+05 4.000000000000e+00
13 18  9 29  9 59 44.0-8.818181231618e-05 7.958078640513e-13 0.000000000000e+00
    0.000000000000e+00 1.021875000000e+01 4.104456681381e-09 9.056693195510e-01
    5.122274160385e-07 3.435955382884e-03 1.144967973232e-05 5.153674468994e+03
    5.543840000000e+05-2.607703208923e-08-2.671217737707e+00-8.009374141693e-08
    9.686605020152e-01 1.623437500000e+02 1.455855352162e+00-7.873185092618e-09
   -3.128701751558e-10 1.000000000000e+00 2.020000000000e+03 0.000000000000e+00
    2.400000000000e+00 0.000000000000e+00-1.117587089539e-08 0.000000000000e+00
    5.539560000000e+05 4.000000000000e+00
14 18  9 29  9 59 44.0-9.704567492008e-05 2.273736754432e-13 0.000000000000e+00
    1.000000000000e+00 8.437500000000e+00 4.210889686172e-09 1.833310847956e+00
    3.911554813385e-07 1.003714441322e-02 1.097843050957e-05 5.153636623383e+03
    5.543840000000e+05-8.381903171539e-08-2.713957180513e+00-2.160668373108e-07
    9.612321477944e-01 1.665625000000e+02-1.943485606228e+00-7.840326581072e-09
   -2.250093725435e-10 1.000000000000e+00 2.020000000000e+03 0.000000000000e+00
    2.400000000000e+00 0.000000000000e+00-9.778887033463e-09 1.000000000000e+00
    5.541360000000e+05 4.000000000000e+00
14 18  9 29 11 59 44.0-9.704427793622e-05 2.273736754432e-13 0.000000000000e+00
    2.200000000000e+01 3.906250000000e+00 4.152672975498e-09 2.883562119708e+00
    2.514570951462e-07 1.003771997057e-02 1.104176044464e-05 5.153635198593e+03
    5.615840000000e+05 4.656612873077e-08-2.714012350080e+00-3.911554813385e-08
    9.612311632505e-01 1.634687500000e+02-1.943535687765e+00-7.645675615936e-09
   -2.778687172046e-10 1.000000000000e+00 2.020000000000e+03 0.000000000000e+00
    2.400000000000e+00 0.000000000000e+00-9.778887033463e-09 2.200000000000e+01
    5.544060000000e+05 4.000000000000e+00
13 18  9 29 11 59 44.0-8.817622438073e-05 7.958078640513e-13 0.000000000000e+00
    1.200000000000e+01 1.665625000000e+01 4.081598586393e-09 1.956195706215e+00
    8.437782526016e-07 3.435623948462e-03 1.177191734314e-05 5.153672149658e+03
    5.615840000000e+05 9.872019290924e-08-2.671274218048e+00-1.005828380585e-07
    9.686587552910e-01 1.557812500000e+02 1.455507350283e+00-7.764966299157e-09
   -3.067984936744e-10 1.000000000000e+00 2.020000000000e+03 0.000000000000e+00
    2.400000000000e+00 0.000000000000e+00-1.117587089539e-08 1.200000000000e+01
    5.544060000000e+05 4.000000000000e+00
 8 18  9 29 11 59 44.0-1.168041490018e-04-1.364242052659e-12 0.000000000000e+00
    4.800000000000e+01-7.459375000000e+01 4.294821753708e-09-2.747737449677e+00
   -3.771856427193e-06 3.580387681723e-03 9.484589099884e-06 5.153634374619e+03
    5.615840000000e+05-9.685754776001e-08 3.370633196745e-01 3.352761268616e-08
    9.700133735448e-01 2.012187500000e+02-4.118450015803e-01-7.864970464732e-09
   -6.035965707914e-11 1.000000000000e+00 2.020000000000e+03 0.000000000000e+00
    2.400000000000e+00 0.000000000000e+00 5.122274160385e-09 4.800000000000e+01
    5.544060000000e+05 4.000000000000e+00
30 18  9 29 11 59 44.0 1.735053956509e-05-5.343281372916e-12 0.000000000000e+00
    3.900000000000e+01 1.130312500000e+02 4.820557938445e-09 2.964582041256e-01
    5.889683961868e-06 3.627830417827e-03 7.063150405884e-06 5.153688560486e+03
    5.615840000000e+05 1.247972249985e-07-1.695861724431e+00 5.401670932770e-08
    9.427925335390e-01 2.337812500000e+02-2.973702552819e+00-8.401778539229e-09
    3.303709041314e-10 1.000000000000e+00 2.020000000000e+03 0.000000000000e+00
    2.400000000000e+00 0.000000000000e+00 3.725290298462e-09 3.900000000000e+01
    5.544060000000e+05 4.000000000000e+00
 2 18  9 29 12  0  0.0-1.563178375363e-05-1.091393642128e-11 0.000000000000e+00
    7.700000000000e+01-2.125000000000e+00 4.831629828205e-09 1.275843832565e+00
   -2.291053533554e-07 1.817761128768e-02 1.001544296741e-05 5.153567268372e+03
    5.616000000000e+05-4.041939973831e-07 1.338591646904e+00-1.452863216400e-07
    9.515008269715e-01 1.880000000000e+02-1.827366003849e+00-8.368205712214e-09
    4.082312901861e-10 1.000000000000e+00 2.020000000000e+03 0.000000000000e+00
    2.400000000000e+00 0.000000000000e+00-2.048909664154e-08 7.700000000000e+01
    5.544060000000e+05 4.000000000000e+00
 1 18  9 29 12  0  0.0-9.403796866536e-05-4.774847184308e-12 0.000000000000e+00
    1.030000000000e+02 1.884375000000e+01 4.461971573312e-09 9.598239413884e-01
    1.138076186180e-06 8.130385889672e-03 9.119510650635e-06 5.153663330078e+03
    5.616000000000e+05-6.705522537231e-08 1.402340616544e+00 1.024454832077e-07
    9.723849568565e-01 2.094375000000e+02 6.975701605057e-01-8.065335953616e-09
    3.060841782060e-10 1.000000000000e+00 2.020000000000e+03 0.000000000000e+00
    3.400000000000e+00 0.000000000000e+00 5.587935447693e-09 1.030000000000e+02
    5.544060000000e+05 4.000000000000e+00
